[{"OBJECT_NAME":"STARLINK-3735","OBJECT_ID":"2022-029AE","EPOCH":"2026-03-09T09:54:38.408256","MEAN_MOTION":15.0883316,"ECCENTRICITY":0.00014655,"INCLINATION":53.2171,"RA_OF_ASC_NODE":80.3624,"ARG_OF_PERICENTER":68.6524,"MEAN_ANOMALY":291.4625,"EPHEMERIS_TYPE":0,"CLASSIFICATION_TYPE":"U","NORAD_CAT_ID":52116,"ELEMENT_SET_NO":999,"REV_AT_EPOCH":22074,"BSTAR":9.5846924e-5,"MEAN_MOTION_DOT":1.238e-5,"MEAN_MOTION_DDOT":0},{"OBJECT_NAME":"FENGYUN 1C DEB","OBJECT_ID":"1999-025BZZ","EPOCH":"2026-03-09T13:05:44.544480","MEAN_MOTION":14.97363263,"ECCENTRICITY":0.00745573,"INCLINATION":99.0712,"RA_OF_ASC_NODE":279.0573,"ARG_OF_PERICENTER":15.484,"MEAN_ANOMALY":344.8634,"EPHEMERIS_TYPE":0,"CLASSIFICATION_TYPE":"U","NORAD_CAT_ID":31619,"ELEMENT_SET_NO":999,"REV_AT_EPOCH":64782,"BSTAR":0.0036839182,"MEAN_MOTION_DOT":0.00045478,"MEAN_MOTION_DDOT":0}]
